{"type":"FeatureCollection","features":[{"type":"Feature","properties":{"name":"Maschera fuori Canton Ticino"},"geometry":{"type":"MultiPolygon","coordinates":[[[[[-10,35],[30,35],[30,60],[-10,60],[-10,35]]],[[9.16058162123132,46.17081568889668],[9.090247756182643,46.21359113337151],[9.078956158954457,46.26152088615843],[9.054899535897999,46.29426954324528],[9.089465787183064,46.35043101150419],[9.104118642614361,46.414791319438066],[9.096278782287293,46.46163346622585],[9.05547537975574,46.478019206768856],[9.01782349084927,46.53330240358081],[9.035288423221417,46.601290077385876],[8.942634862967967,46.61976235006503],[8.9069259641566,46.61351725209317],[8.904845985010256,46.58536603442679],[8.844393342395707,46.564619400958705],[8.67988341269949,46.58045709999687],[8.64188285423934,46.5653936811779],[8.540048509392843,46.58768549881208],[8.521545277014564,46.54376436494836],[8.478743113869047,46.52887696953734],[8.444167858959844,46.49664370396973],[8.39428324298742,46.495546910004634],[8.385804530258284,46.45341348958685],[8.44719637647511,46.46491549560776],[8.472271288354486,46.39717027663727],[8.46645415117153,46.33500224469431],[8.428830333740898,46.2995366866026],[8.46977954753287,46.23412263029859],[8.533548300334346,46.219507773375305],[8.541581049085089,46.19903570365708],[8.601191069063635,46.15427365870531],[8.612950995710017,46.1228720595192],[8.715121674267186,46.09844095504276],[8.743478206092682,46.12352321786218],[8.78417455146105,46.095380684974835],[8.816021236308014,46.09866457161622],[8.855739411702185,46.06278825271581],[8.8070567013241,46.023128482125855],[8.788339548068663,45.992535896568576],[8.83219060330258,45.98923053058039],[8.925284206133755,45.90682235025728],[8.949966410749104,45.84461120969002],[8.994079275055268,45.8243165945328],[9.032167498060058,45.82570677898955],[9.078522754432205,45.91036658212156],[9.023640755649021,45.93833333114891],[9.024066362072723,45.99394975282711],[9.010243338022564,46.02803912045451],[9.021530041386605,46.052935648463134],[9.078319920210792,46.06532600948839],[9.09033239845411,46.091273282355104],[9.073667961704311,46.11912340128689],[9.121877167146211,46.13593621701444],[9.16058162123132,46.17081568889668]]]]}}]}